NORAD_CAT_ID,OBJECT_NAME,OBJECT_TYPE,EPOCH,MEAN_MOTION,ECCENTRICITY,INCLINATION,RA_OF_ASC_NODE,ARG_OF_PERICENTER,MEAN_ANOMALY,BSTAR,MEAN_MOTION_DOT,MEAN_MOTION_DDOT,TLE_LINE0,TLE_LINE1,TLE_LINE2,SEMIMAJOR_AXIS,PERIOD,APOGEE,PERIGEE,DECAYED
51772.0,STARLINK-3623,PAYLOAD,2022-07-07 22:00:00,15.08833554,0.0001712,53.2161,238.0757,50.7375,21.4871,0.00073379,0.00011407,0.0,0 STARLINK-3623,1 51772U 22017E   22188.91667824  .00011407  00000-0  73379-3 0  9993,2 51772  53.2161 238.0757 0001712  50.7375  21.4871 15.08833554 21695,6917.9,95.438,540.9490000000002,538.581,0.0
51772.0,STARLINK-3623,PAYLOAD,2022-07-08 11:59:22,15.08843609,0.0001841,53.2165,235.4598,51.3783,308.7374,0.00012425,1.6899999999999994e-05,0.0,0 STARLINK-3623,1 51772U 22017E   22189.49956242  .00001690  00000-0  12425-3 0  9990,2 51772  53.2165 235.4598 0001841  51.3783 308.7374 15.08843609 20270,6917.869000000002,95.437,541.008,538.461,0.0
51772.0,STARLINK-3623,PAYLOAD,2022-07-08 22:00:01,15.08855456,0.0001704,53.2156,233.5864,51.9142,55.2197,0.0013811,0.0002177,0.0,0 STARLINK-3623,1 51772U 22017E   22189.91668981  .00021770  00000-0  13811-2 0  9997,2 51772  53.2156 233.5864 0001704  51.9142  55.2197 15.08855456 21842,6917.833000000001,95.437,540.877,538.519,0.0
51772.0,STARLINK-3623,PAYLOAD,2022-07-09 14:00:01,15.08816654,0.0001773,53.2151,230.5955,43.044,87.2566,0.0003996,6.073e-05,0.0,0 STARLINK-3623,1 51772U 22017E   22190.58334491  .00006073  00000-0  39960-3 0  9991,2 51772  53.2151 230.5955 0001773  43.0440  87.2566 15.08816654  1305,6917.9519999999975,95.439,541.043,538.59,0.0
51772.0,STARLINK-3623,PAYLOAD,2022-07-09 16:00:00,15.088281699999998,0.0001746,53.215,230.221,43.2534,179.9374,-0.0013906,-0.00022344,0.0,0 STARLINK-3623,1 51772U 22017E   22190.66667824 -.00022344  00000-0 -13906-2 0  9991,2 51772  53.2150 230.2210 0001746  43.2534 179.9374 15.08828170 21967,6917.917,95.438,540.989,538.5740000000002,0.0
51772.0,STARLINK-3623,PAYLOAD,2022-07-09 20:00:01,15.08819338,0.0001631999999999,53.2152,229.4718,46.4073,2.5731,-0.0010612,-0.00017128,0.0,0 STARLINK-3623,1 51772U 22017E   22190.83334491 -.00017128  00000-0 -10612-2 0  9996,2 51772  53.2152 229.4718 0001632  46.4073   2.5731 15.08819338  1309,6917.944,95.439,540.938,538.68,0.0
51772.0,STARLINK-3623,PAYLOAD,2022-07-10 06:00:00,15.08830018,0.0001661,53.2167,227.602,45.6867,107.7417,0.0052637,0.00084466,0.0,0 STARLINK-3623,1 51772U 22017E   22191.25001157  .00084466  00000-0  52637-2 0  9993,2 51772  53.2167 227.6020 0001661  45.6867 107.7417 15.08830018 22046,6917.911,95.438,540.925,538.627,0.0
51772.0,STARLINK-3623,PAYLOAD,2022-07-10 14:00:01,15.08799735,0.0001802,53.2146,226.1065,41.7339,123.2724,0.0024386,0.00038693,0.0,0 STARLINK-3623,1 51772U 22017E   22191.58334491  .00038693  00000-0  24386-2 0  9990,2 51772  53.2146 226.1065 0001802  41.7339 123.2724 15.08799735  1304,6918.003000000002,95.44,541.115,538.622,0.0
51772.0,STARLINK-3623,PAYLOAD,2022-07-10 22:00:00,15.08801799,0.0001599,53.2147,224.6084,45.2592,131.3203,0.0045985,0.00073585,0.0,0 STARLINK-3623,1 51772U 22017E   22191.91667824  .00073585  00000-0  45985-2 0  9993,2 51772  53.2147 224.6084 0001599  45.2592 131.3203 15.08801799  1308,6917.996999999999,95.44,540.9680000000002,538.756,0.0
51772.0,STARLINK-3623,PAYLOAD,2022-07-11 14:00:01,15.08842084,0.0001834,53.2144,221.6173,39.6679,160.1054,0.0018597,0.00029435,0.0,0 STARLINK-3623,1 51772U 22017E   22192.58334491  .00029435  00000-0  18597-2 0  9992,2 51772  53.2144 221.6173 0001834  39.6679 160.1054 15.08842084 22259,6917.874,95.437,541.008,538.47,0.0
51772.0,STARLINK-3623,PAYLOAD,2022-07-11 22:00:00,15.08837615,0.0001661,53.2145,220.11900000000003,43.9853,167.4066,0.0023077,0.00036628,0.0,0 STARLINK-3623,1 51772U 22017E   22192.91667824  .00036628  00000-0  23077-2 0  9999,2 51772  53.2145 220.1190 0001661  43.9853 167.4066 15.08837615  1303,6917.888000000001,95.438,540.9019999999998,538.604,0.0
51772.0,STARLINK-3623,PAYLOAD,2022-07-12 06:00:00,15.08879155,0.0001754,53.2146,218.6237,43.0521,179.9462,-0.0042821,-0.00067869,0.0,0 STARLINK-3623,1 51772U 22017E   22193.25001157 -.00067869  00000-0 -42821-2 0  9999,2 51772  53.2146 218.6237 0001754  43.0521 179.9462 15.08879155 22355,6917.761,95.435,540.839,538.4119999999998,0.0
51772.0,STARLINK-3623,PAYLOAD,2022-07-12 14:00:01,15.08832726,0.0001847,53.2143,217.1279,37.5694,197.045,0.001302,0.0002049,0.0,0 STARLINK-3623,1 51772U 22017E   22193.58334491  .00020490  00000-0  13020-2 0  9991,2 51772  53.2143 217.1279 0001847  37.5694 197.0450 15.08832726  1307,6917.903,95.438,541.045,538.49,0.0
51772.0,STARLINK-3623,PAYLOAD,2022-07-12 22:00:00,15.08822074,0.000168,53.2146,215.6296,42.4534,203.7651,0.0027329,0.00043453,0.0,0 STARLINK-3623,1 51772U 22017E   22193.91667824  .00043453  00000-0  27329-2 0  9998,2 51772  53.2146 215.6296 0001680  42.4534 203.7651 15.08822074 22457,6917.935,95.439,540.962,538.638,0.0
51772.0,STARLINK-3623,PAYLOAD,2022-07-13 14:00:01,15.088618900000002,0.0001937,53.2144,212.6383,39.6057,229.8076,-0.0023988,-0.00038286,0.0,0 STARLINK-3623,1 51772U 22017E   22194.58334491 -.00038286  00000-0 -23988-2 0  9990,2 51772  53.2144 212.6383 0001937  39.6057 229.8076 15.08861890  1302,6917.813,95.436,541.018,538.339,0.0
51772.0,STARLINK-3623,PAYLOAD,2022-07-13 16:00:00,15.08873873,0.0001922,53.2145,212.2636,40.7217,321.5907,-0.0049196,-0.00077812,0.0,0 STARLINK-3623,1 51772U 22017E   22194.66667824 -.00077812  00000-0 -49196-2 0  9995,2 51772  53.2145 212.2636 0001922  40.7217 321.5907 15.08873873 22563,6917.776999999999,95.435,540.971,538.312,0.0
51772.0,STARLINK-3623,PAYLOAD,2022-07-13 22:00:00,15.08801185,0.0001823,53.2147,211.1401,46.8124,234.2171,0.0028166,0.00044776,0.0,0 STARLINK-3623,1 51772U 22017E   22194.91667824  .00044776  00000-0  28166-2 0  9998,2 51772  53.2147 211.1401 0001823  46.8124 234.2171 15.08801185  1306,6917.999,95.44,541.125,538.6030000000002,0.0
51772.0,STARLINK-3623,PAYLOAD,2022-07-14 08:00:01,15.08831289,0.0002025,53.2148,209.2713,44.3798,341.1143,-0.00075801,-0.00012329,0.0,0 STARLINK-3623,1 51772U 22017E   22195.33334491 -.00012329  00000-0 -75801-3 0  9996,2 51772  53.2148 209.2713 0002025  44.3798 341.1143 15.08831289 22663,6917.906999999997,95.438,541.173,538.371,0.0
51772.0,STARLINK-3623,PAYLOAD,2022-07-14 14:00:01,15.08833005,0.0002008,53.2145,208.1488,42.2299,261.9448,-0.00035566,-5.943e-05,0.0,0 STARLINK-3623,1 51772U 22017E   22195.58334491 -.00005943  00000-0 -35566-3 0  9991,2 51772  53.2145 208.1488 0002008  42.2299 261.9448 15.08833005  1304,6917.901999999999,95.438,541.156,538.378,0.0
51772.0,STARLINK-3623,PAYLOAD,2022-07-14 22:00:00,15.08806231,0.0001833,53.2148,206.6508,48.5532,267.2142,0.0029004,0.00046132,0.0,0 STARLINK-3623,1 51772U 22017E   22195.91667824  .00046132  00000-0  29004-2 0  9999,2 51772  53.2148 206.6508 0001833  48.5532 267.2142 15.08806231  1308,6917.984,95.44,541.117,538.581,0.0
51772.0,STARLINK-3623,PAYLOAD,2022-07-15 06:00:00,15.08843605,0.0001973,53.2149,205.1558,46.2477,281.0954,-0.0015131,-0.00024291,0.0,0 STARLINK-3623,1 51772U 22017E   22196.25001157 -.00024291  00000-0 -15131-2 0  9998,2 51772  53.2149 205.1558 0001973  46.2477 281.0954 15.08843605 22805,6917.869000000002,95.437,541.099,538.369,0.0
51772.0,STARLINK-3623,PAYLOAD,2022-07-15 14:00:01,15.08842797,0.0002011,53.2145,203.6594,43.7693,295.1591,-0.00089634,-0.00014527,0.0,0 STARLINK-3623,1 51772U 22017E   22196.58334491 -.00014527  00000-0 -89634-3 0  9995,2 51772  53.2145 203.6594 0002011  43.7693 295.1591 15.08842797  1306,6917.871999999999,95.437,541.128,538.346,0.0
51772.0,STARLINK-3623,PAYLOAD,2022-07-15 22:00:00,15.08813226,0.0001846,53.2147,202.1615,50.6638,299.8661,0.0029359,0.00046713,0.0,0 STARLINK-3623,1 51772U 22017E   22196.91667824  .00046713  00000-0  29359-2 0  9998,2 51772  53.2147 202.1615 0001846  50.6638 299.8661 15.08813226 22900,6917.962,95.439,541.104,538.55,0.0
51772.0,STARLINK-3623,PAYLOAD,2022-07-16 14:00:01,15.088519,0.0002031,53.2145,199.1701,45.8129,327.8936,-0.0012329,-0.00019863,0.0,0 STARLINK-3623,1 51772U 22017E   22197.58334491 -.00019863  00000-0 -12329-2 0  9990,2 51772  53.2145 199.1701 0002031  45.8129 327.8936 15.08851900 23007,6917.844,95.437,541.114,538.304,0.0
51772.0,STARLINK-3623,PAYLOAD,2022-07-16 22:00:00,15.08835665,0.0001892,53.216,197.6729,53.0368,332.28,0.00059596,9.208e-05,0.0,0 STARLINK-3623,1 51772U 22017E   22197.91667824  .00009208  00000-0  59596-3 0  9994,2 51772  53.2160 197.6729 0001892  53.0368 332.2800 15.08835665  1306,6917.894,95.438,541.068,538.45,0.0
51772.0,STARLINK-3623,PAYLOAD,2022-07-17 14:00:01,15.08824238,0.0002017,53.2159,194.6822,41.856,6.6556,0.0010625,0.00016655,0.0,0 STARLINK-3623,1 51772U 22017E   22198.58334491  .00016655  00000-0  10625-2 0  9992,2 51772  53.2159 194.6822 0002017  41.8560   6.6556 15.08824238 23155,6917.929,95.439,541.189,538.398,0.0
51772.0,STARLINK-3623,PAYLOAD,2022-07-17 22:00:00,15.08836613,0.0001926,53.2168,193.1847,43.3968,16.6999,2.1654e-05,5.6e-07,0.0,0 STARLINK-3623,1 51772U 22017E   22198.91667824  .00000056  00000-0  21654-4 0  9992,2 51772  53.2168 193.1847 0001926  43.3968  16.6999 15.08836613  1308,6917.891,95.438,541.0880000000002,538.423,0.0
51772.0,STARLINK-3623,PAYLOAD,2022-07-18 06:00:00,15.08834726,0.0002064,53.2149,191.6884,48.3929,23.2746,-0.0011513,-0.00018562,0.0,0 STARLINK-3623,1 51772U 22017E   22199.25001157 -.00018562  00000-0 -11513-2 0  9995,2 51772  53.2149 191.6884 0002064  48.3929  23.2746 15.08834726 23252,6917.897,95.438,541.189,538.3340000000002,0.0
51772.0,STARLINK-3623,PAYLOAD,2022-07-18 14:00:01,15.08846232,0.0002065,53.2149,190.1917,46.4926,36.753,-0.0015656,-0.00025123,0.0,0 STARLINK-3623,1 51772U 22017E   22199.58334491 -.00025123  00000-0 -15656-2 0  9994,2 51772  53.2149 190.1917 0002065  46.4926  36.7530 15.08846232  1307,6917.861,95.437,541.155,538.298,0.0
